DTUSAT                  
1 27842U 03031C   11147.98806950  .00000067  00000-0  50853-4 0  1247
2 27842  98.7011 157.6927 0008451 234.7567 125.2831 14.21118230410156
CUTE-1 (CO-55)          
1 27844U 03031E   11147.05028817  .00000097  00000-0  65360-4 0  1180
2 27844  98.7055 156.0584 0008867 261.8360  98.1803 14.20809745409917
QUAKESAT                
1 27845U 03031F   11148.09044646  .00000122  00000-0  77327-4 0  1246
2 27845  98.7144 156.7103 0007743 278.8532  81.1768 14.20483529409945
AAU CUBESAT             
1 27846U 03031G   11147.91781985  .00000072  00000-0  53293-4 0   127
2 27846  98.6982 157.6077 0008533 235.4647 124.5736 14.21115828410145
CANX-1                  
1 27847U 03031H   11147.51458711  .00000007  00000-0  23424-4 0   303
2 27847  98.6956 157.1916 0008580 235.2089 124.8257 14.21090582410032
CUBESAT XI-IV (CO-57)   
1 27848U 03031J   11146.99041294  .00000085  00000-0  59686-4 0   674
2 27848  98.7120 155.1823 0008695 265.9103  94.1054 14.20589556409851
UWE-1                   
1 28892U 05043C   11147.69660790  .00000240  00000-0  59230-4 0  9391
2 28892  97.9692  23.9328 0016363 287.3603  72.5800 14.60080260297364
CUBESAT XI-V (CO-58)    
1 28895U 05043F   11147.71217575  .00000140  00000-0  38331-4 0  8843
2 28895  97.9692  24.8888 0016465 285.4679  74.4725 14.60100579297254
NCUBE-2                 
1 28897U 05043H   11148.09057430  .00000294  00000-0  70052-4 0  4559
2 28897  97.9680  25.1432 0016195 286.2683  73.6737 14.60301038289614
CSTB1                   
1 31122U 07012F   11147.71424718  .00000558  00000-0  13192-3 0  2256
2 31122  97.8982 180.7393 0084097 221.2887 138.1884 14.55653243218364
MAST                    
1 31126U 07012K   11148.07526478  .00000137  00000-0  41296-4 0  1693
2 31126  97.8942 176.4361 0093271 232.8325 126.4340 14.53745958218168
LIBERTAD-1              
1 31128U 07012M   11147.02855623 -.00000047  00000-0  00000+0 0  2286
2 31128  97.8990 172.1927 0100928 246.6459 112.4119 14.52355436217775
POLYSAT CP3             
1 31129U 07012N   11147.55153871  .00000125  00000-0  39307-4 0  8785
2 31129  97.8992 172.9571 0100819 244.6240 114.4460 14.52480100217842
CAPE1                   
1 31130U 07012P   11147.62936289  .00000259  00000-0  70120-4 0  1854
2 31130  97.9001 172.8137 0101262 245.0044 114.0620 14.52388993217653
POLYSAT CP4             
1 31132U 07012Q   11148.03035186  .00000162  00000-0  45738-4 0  1971
2 31132  97.8962 180.6177 0084296 220.9097 138.5758 14.55508045218275
NTS (CANX-6)            
1 32784U 08021B   11148.16464439  .00000543  00000-0  75914-4 0    57
2 32784  97.8503 211.8190 0014795 235.7410 124.2377 14.81487454166520
CUTE-1.7+APD II (CO-65) 
1 32785U 08021C   11147.35039361  .00000770  00000-0  10362-3 0    02
2 32785  97.8500 211.6403 0013762 241.7760 118.2103 14.81993280166452
COMPASS-1               
1 32787U 08021E   11147.75881070  .00000942  00000-0  12398-3 0  9977
2 32787  97.8486 211.9541 0014523 241.3204 118.6546 14.82405025166538
AAUSAT-II               
1 32788U 08021F   11147.65758392  .00000382  00000-0  54029-4 0  9872
2 32788  97.8482 212.0709 0014110 243.4941 116.4820 14.82585896166532
DELFI-C3 (DO-64)        
1 32789U 08021G   11147.13385282  .00000868  00000-0  11310-3 0    33
2 32789  97.8579 212.5217 0014208 241.9235 118.0589 14.83033912166466
CANX-2                  
1 32790U 08021H   11148.10987769  .00000181  00000-0  29435-4 0  9957
2 32790  97.8470 212.2135 0014330 240.8531 119.1249 14.81944460166548
SEEDS II (CO-66)        
1 32791U 08021J   11147.63619706  .00000647  00000-0  87873-4 0  9898
2 32791  97.8500 211.7815 0014812 240.9050 119.0676 14.82100137166464
POLYSAT CP6             
1 35003U 09028C   11147.53950212  .00047739  00000-0  50148-3 0  6304
2 35003  40.4551 269.9470 0020788  80.2680 280.0494 15.63195886114193
HAWKSAT 1               
1 35004U 09028D   11147.51836070  .00070990  00000-0  59040-3 0  6336
2 35004  40.4591 262.4872 0019790  84.0757 276.2323 15.68876661114268
SWISSCUBE               
1 35932U 09051B   11148.00274035  .00005254  00000-0  12986-2 0  9964
2 35932  98.3305 248.2067 0006231 208.1943 151.8180 14.52437671 88796
BEESAT                  
1 35933U 09051C   11147.83951643  .00007845  00000-0  19109-2 0   864
2 35933  98.3249 248.2994 0003787 250.4667 109.5771 14.52982592 88804
UWE-2                   
1 35934U 09051D   11147.96561611  .00003320  00000-0  81574-3 0  8375
2 35934  98.3258 248.2289 0005570 227.3002 132.7460 14.52966751 88824
ITUPSAT 1               
1 35935U 09051E   11147.24863002  .00001941  00000-0  48744-3 0  5833
2 35935  98.3356 247.8172 0008062 205.5174 154.5431 14.52379368 88672
TISAT-1                 
1 36799U 10035E   11147.86195326  .00000522  00000-0  75231-4 0  8931
2 36799  98.1024 215.9093 0014970 348.1912  11.8924 14.80543650 47303
